*******************************************************************************
JPL/HORIZONS                  87269 (2000 OO67)            2020-Nov-19 18:29:41
Rec #:   87269 (+COV) Soln.date: 2020-Nov-12_20:54:27     # obs: 90 (2000-2019)
 
IAU76/J2000 helio. ecliptic osc. elements (au, days, deg., period=Julian yrs):
 
  EPOCH=  2456999.5 ! 2014-Dec-08.00 (TDB)         Residual RMS= .19813
   EC= .961871330134482    QR= 20.78621675548577   TP= 2453484.0785626732
   OM= 142.3966995666361   W=  212.452864665294    IN= 20.07278359534285
   A= 545.1597663595386    MA= .2722047977232199   ADIST= 1069.533315963591
   PER= 12728.98895        N= 7.7432E-5            ANGMOM= .109851104
   DAN= 216.52141          DDN= 22.50969           L= 353.2460416
   B= -10.612766           MOID= 19.79929924       TP= 2005-Apr-23.5785626732
 
Asteroid physical parameters (km, seconds, rotational period in hours):
   GM= n.a.                RAD= n.a.               ROTPER= n.a.
   H= 9.2                  G= .150                 B-V= n.a.
                           ALBEDO= n.a.            STYP= n.a.
 
ASTEROID comments: 
1: soln ref.= JPL#10, OCC=1
2: source=ORB
*******************************************************************************
 
 
*******************************************************************************
Ephemeris / WWW_USER Thu Nov 19 18:29:41 2020 Pasadena, USA      / Horizons
*******************************************************************************
Target body name: 87269 (2000 OO67)               {source: JPL#10}
Center body name: Sun (10)                        {source: DE431}
Center-site name: BODY CENTER
*******************************************************************************
Start time      : A.D. 2020-Nov-19 00:00:00.0000 TDB
Stop  time      : A.D. 2020-Dec-19 00:00:00.0000 TDB
Step-size       : 1440 minutes
*******************************************************************************
Center geodetic : 0.00000000,0.00000000,0.0000000 {E-lon(deg),Lat(deg),Alt(km)}
Center cylindric: 0.00000000,0.00000000,0.0000000 {E-lon(deg),Dxy(km),Dz(km)}
Center radii    : 696000.0 x 696000.0 x 696000.0 k{Equator, meridian, pole}    
Small perturbers: Yes                             {source: SB431-N16}
Output units    : AU-D
Output type     : GEOMETRIC cartesian states
Output format   : 3 (position, velocity, LT, range, range-rate)
Reference frame : Ecliptic of J2000.0
*******************************************************************************
Initial IAU76/J2000 heliocentric ecliptic osculating elements (au, days, deg.):
  EPOCH=  2456999.5 ! 2014-Dec-08.00 (TDB)         Residual RMS= .19813        
   EC= .961871330134482    QR= 20.78621675548577   TP= 2453484.0785626732      
   OM= 142.3966995666361   W=  212.452864665294    IN= 20.07278359534285       
  Equivalent ICRF heliocentric equatorial cartesian coordinates (au, au/d):
   X= 1.762922474117325E+01  Y= 1.681227905234039E+01  Z=-1.654719097629651E+00
  VX=-1.624764760586972E-03 VY= 4.494238935775046E-03 VZ= 9.260462806342296E-04
Asteroid physical parameters (km, seconds, rotational period in hours):        
   GM= n.a.                RAD= n.a.               ROTPER= n.a.                
   H= 9.2                  G= .150                 B-V= n.a.                   
                           ALBEDO= n.a.            STYP= n.a.                  
*******************************************************************************
JDTDB
   X     Y     Z
   VX    VY    VZ
   LT    RG    RR
*******************************************************************************
$$SOE
2459193.500000000 = A.D. 2020-Dec-10 00:00:00.0000 TDB 
 X = 1.340092142816400E+01 Y = 2.389266609646587E+01 Z =-9.900029889397024E+00
 VX=-2.162744203156243E-03 VY= 3.840259662434228E-03 VZ=-6.242836972759710E-04
 LT= 1.682307251891375E-01 RG= 2.912824711739430E+01 RR= 2.367176565316688E-03
2459194.500000000 = A.D. 2020-Dec-11 00:00:00.0000 TDB 
 X = 1.339875860096436E+01 Y = 2.389650621754432E+01 Z =-9.900654113733241E+00
 VX=-2.162910188776374E-03 VY= 3.839982503280883E-03 VZ=-6.241649782482168E-04
 LT= 1.682443972759853E-01 RG= 2.913061436584945E+01 RR= 2.367320337408293E-03
2459195.500000000 = A.D. 2020-Dec-12 00:00:00.0000 TDB 
 X = 1.339659560780102E+01 Y = 2.390034606148995E+01 Z =-9.901278219359696E+00
 VX=-2.163076130690652E-03 VY= 3.839705396693558E-03 VZ=-6.240462777450303E-04
 LT= 1.682580701930596E-01 RG= 2.913298175805385E+01 RR= 2.367464063716689E-03
2459196.500000000 = A.D. 2020-Dec-13 00:00:00.0000 TDB 
 X = 1.339443244871724E+01 Y = 2.390418562835509E+01 Z =-9.901902206294899E+00
 VX=-2.163242029820601E-03 VY= 3.839428342241445E-03 VZ=-6.239275957403981E-04
 LT= 1.682717439400938E-01 RG= 2.913534929396137E+01 RR= 2.367607743497223E-03
2459197.500000000 = A.D. 2020-Dec-14 00:00:00.0000 TDB 
 X = 1.339226912375533E+01 Y = 2.390802491819167E+01 Z =-9.902526074557331E+00
 VX=-2.163407887102070E-03 VY= 3.839151339488284E-03 VZ=-6.238089322056728E-04
 LT= 1.682854185168170E-01 RG= 2.913771697352508E+01 RR= 2.367751375993647E-03
2459198.500000000 = A.D. 2020-Dec-15 00:00:00.0000 TDB 
 X = 1.339010563295667E+01 Y = 2.391186393105115E+01 Z =-9.903149824165457E+00
 VX=-2.163573703485676E-03 VY= 3.838874387988628E-03 VZ=-6.236902871098395E-04
 LT= 1.682990939229540E-01 RG= 2.914008479669733E+01 RR= 2.367894960434938E-03
2459199.500000000 = A.D. 2020-Dec-16 00:00:00.0000 TDB 
 X = 1.338794197636167E+01 Y = 2.391570266698458E+01 Z =-9.903773455137689E+00
 VX=-2.163739479937121E-03 VY= 3.838597487284259E-03 VZ=-6.235716604197775E-04
 LT= 1.683127701582248E-01 RG= 2.914245276342968E+01 RR= 2.368038496032316E-03
2459200.500000000 = A.D. 2020-Dec-17 00:00:00.0000 TDB 
 X = 1.338577815400978E+01 Y = 2.391954112604250E+01 Z =-9.904396967492419E+00
 VX=-2.163905217437443E-03 VY= 3.838320636900750E-03 VZ=-6.234530521005238E-04
 LT= 1.683264472223451E-01 RG= 2.914482087367286E+01 RR= 2.368181981976393E-03
2459201.500000000 = A.D. 2020-Dec-18 00:00:00.0000 TDB 
 X = 1.338361416593944E+01 Y = 2.392337930827498E+01 Z =-9.905020361248001E+00
 VX=-2.164070916983194E-03 VY= 3.838043836344064E-03 VZ=-6.233344621155334E-04
 LT= 1.683401251150257E-01 RG= 2.914718912737680E+01 RR= 2.368325417434398E-03
2459202.500000000 = A.D. 2020-Dec-19 00:00:00.0000 TDB 
 X = 1.338145001218812E+01 Y = 2.392721721373162E+01 Z =-9.905643636422749E+00
 VX=-2.164236579586602E-03 VY= 3.837767085097184E-03 VZ=-6.232158904269509E-04
 LT= 1.683538038359727E-01 RG= 2.914955752449060E+01 RR= 2.368468801547429E-03
